ADRAS-J                 
1 58992U 24034A   24165.42721194  .00004109  00000+0  38381-3 0  9993
2 58992  98.2121 138.2741 0045916  62.6275 297.9606 14.93969026 17306
